{"type": "FeatureCollection", "features": [ {"type": "Feature", "properties": {"norad_id": 44542, "name": "BEIDOU-3 M24 (C46)", "group": "gnss", "lat": 29.920242543975444, "lon": -147.10392578617248, "alt_km": 21498.41927284013, "timestamp": "2025-12-26T22:28:06.027810+00:00", "meta": {"OBJECT_NAME": "BEIDOU-3 M24 (C46)", "OBJECT_ID": "2019-061A", "EPOCH": "2025-12-25T19:20:31.720416", "MEAN_MOTION": 1.86229328, "ECCENTRICITY": 0.00095592, "INCLINATION": 54.4007, "RA_OF_ASC_NODE": 188.5751, "ARG_OF_PERICENTER": 26.2339, "MEAN_ANOMALY": 333.8493, "EPHEMERIS_TYPE": 0, "CLASSIFICATION_TYPE": "U", "NORAD_CAT_ID": 44542, "ELEMENT_SET_NO": 999, "REV_AT_EPOCH": 4256, "BSTAR": 0, "MEAN_MOTION_DOT": 1.16e-06, "MEAN_MOTION_DDOT": 0}, "tle": {"line1": "1 44542U 19061A   25359.80592269  .00000116  00000+0  00000+0 0  9997", "line2": "2 44542  54.4007 188.5751 0009559  26.2339 333.8493  1.86229328 42560"}}, "geometry": {"type": "Point", "coordinates": [-147.10392578617248, 29.920242543975444]}}, {"type": "Feature", "properties": {"norad_id": 44543, "name": "BEIDOU-3 M23 (C45)", "group": "gnss", "lat": -38.21459778971548, "lon": 154.15758878704997, "alt_km": 21528.73085663803, "timestamp": "2025-12-26T22:28:06.027822+00:00", "meta": {"OBJECT_NAME": "BEIDOU-3 M23 (C45)", "OBJECT_ID": "2019-061B", "EPOCH": "2025-12-26T11:37:48.857664", "MEAN_MOTION": 1.86227559, "ECCENTRICITY": 0.0005976, "INCLINATION": 54.3995, "RA_OF_ASC_NODE": 188.5205, "ARG_OF_PERICENTER": 25.6827, "MEAN_ANOMALY": 342.0898, "EPHEMERIS_TYPE": 0, "CLASSIFICATION_TYPE": "U", "NORAD_CAT_ID": 44543, "ELEMENT_SET_NO": 999, "REV_AT_EPOCH": 4258, "BSTAR": 0, "MEAN_MOTION_DOT": 1.22e-06, "MEAN_MOTION_DDOT": 0}, "tle": {"line1": "1 44543U 19061B   25360.48459326  .00000122  00000+0  00000+0 0  9997", "line2": "2 44543  54.3995 188.5205 0005976  25.6827 342.0898  1.86227559 42581"}}, "geometry": {"type": "Point", "coordinates": [154.15758878704997, -38.21459778971548]}}, {"type": "Feature", "properties": {"norad_id": 44624, "name": "EUTELSAT 5 WEST B (EGNOS/PRN 121)", "group": "gnss", "lat": 0.0772270543139186, "lon": 67.70756280292332, "alt_km": 35798.36354906543, "timestamp": "2025-12-26T22:28:06.027834+00:00", "meta": {"OBJECT_NAME": "EUTELSAT 5 WEST B (EGNOS/PRN 121)", "OBJECT_ID": "2019-067A", "EPOCH": "2025-12-25T22:47:38.488128", "MEAN_MOTION": 1.0027127, "ECCENTRICITY": 0.00031947, "INCLINATION": 0.0622, "RA_OF_ASC_NODE": 345.9649, "ARG_OF_PERICENTER": 287.5339, "MEAN_ANOMALY": 158.1146, "EPHEMERIS_TYPE": 0, "CLASSIFICATION_TYPE": "U", "NORAD_CAT_ID": 44624, "ELEMENT_SET_NO": 999, "REV_AT_EPOCH": 2270, "BSTAR": 0, "MEAN_MOTION_DOT": -2.1e-07, "MEAN_MOTION_DDOT": 0}, "tle": {"line1": "1 44624U 19067A   25359.94975102 -.00000021  00000+0  00000+0 0  9996", "line2": "2 44624   0.0622 345.9649 0003194 287.5339 158.1146  1.00271270 22703"}}, "geometry": {"type": "Point", "coordinates": [67.70756280292332, 0.0772270543139186]}}, {"type": "Feature", "properties": {"norad_id": 44793, "name": "BEIDOU-3 M22 (C44)", "group": "gnss", "lat": 27.531380682616913, "lon": 103.70963413152084, "alt_km": 21533.47728266394, "timestamp": "2025-12-26T22:28:06.027846+00:00", "meta": {"OBJECT_NAME": "BEIDOU-3 M22 (C44)", "OBJECT_ID": "2019-078A", "EPOCH": "2025-12-26T04:23:18.195072", "MEAN_MOTION": 1.86232141, "ECCENTRICITY": 0.0006121, "INCLINATION": 54.096, "RA_OF_ASC_NODE": 305.9151, "ARG_OF_PERICENTER": 23.7349, "MEAN_ANOMALY": 336.3032, "EPHEMERIS_TYPE": 0, "CLASSIFICATION_TYPE": "U", "NORAD_CAT_ID": 44793, "ELEMENT_SET_NO": 999, "REV_AT_EPOCH": 4142, "BSTAR": 0, "MEAN_MOTION_DOT": -5.6e-07, "MEAN_MOTION_DDOT": 0}, "tle": {"line1": "1 44793U 19078A   25360.18284948 -.00000056  00000+0  00000+0 0  9992", "line2": "2 44793  54.0960 305.9151 0006121  23.7349 336.3032  1.86232141 41424"}}, "geometry": {"type": "Point", "coordinates": [103.70963413152084, 27.531380682616913]}}, {"type": "Feature", "properties": {"norad_id": 44794, "name": "BEIDOU-3 M21 (C43)", "group": "gnss", "lat": 40.04763606843538, "lon": -16.653031531818154, "alt_km": 21514.27498613392, "timestamp": "2025-12-26T22:28:06.027857+00:00", "meta": {"OBJECT_NAME": "BEIDOU-3 M21 (C43)", "OBJECT_ID": "2019-078B", "EPOCH": "2025-12-25T05:55:32.884896", "MEAN_MOTION": 1.86227898, "ECCENTRICITY": 0.0004304, "INCLINATION": 54.0703, "RA_OF_ASC_NODE": 305.9129, "ARG_OF_PERICENTER": 12.6939, "MEAN_ANOMALY": 347.3266, "EPHEMERIS_TYPE": 0, "CLASSIFICATION_TYPE": "U", "NORAD_CAT_ID": 44794, "ELEMENT_SET_NO": 999, "REV_AT_EPOCH": 4141, "BSTAR": 0, "MEAN_MOTION_DOT": -5.3e-07, "MEAN_MOTION_DDOT": 0}, "tle": {"line1": "1 44794U 19078B   25359.24690839 -.00000053  00000+0  00000+0 0  9995", "line2": "2 44794  54.0703 305.9129 0004304  12.6939 347.3266  1.86227898 41411"}}, "geometry": {"type": "Point", "coordinates": [-16.653031531818154, 40.04763606843538]}}, {"type": "Feature", "properties": {"norad_id": 44850, "name": "COSMOS 2544 (759)", "group": "gnss", "lat": 64.73365656885917, "lon": -175.58354131355867, "alt_km": 19156.168129695543, "timestamp": "2025-12-26T22:28:06.027868+00:00", "meta": {"OBJECT_NAME": "COSMOS 2544 (759)", "OBJECT_ID": "2019-088A", "EPOCH": "2025-12-25T20:55:29.447904", "MEAN_MOTION": 2.13102067, "ECCENTRICITY": 0.00144287, "INCLINATION": 65.4663, "RA_OF_ASC_NODE": 79.5196, "ARG_OF_PERICENTER": 250.7311, "MEAN_ANOMALY": 109.1604, "EPHEMERIS_TYPE": 0, "CLASSIFICATION_TYPE": "U", "NORAD_CAT_ID": 44850, "ELEMENT_SET_NO": 999, "REV_AT_EPOCH": 4702, "BSTAR": 0, "MEAN_MOTION_DOT": -3e-08, "MEAN_MOTION_DDOT": 0}, "tle": {"line1": "1 44850U 19088A   25359.87186861 -.00000003  00000+0  00000+0 0  9998", "line2": "2 44850  65.4663  79.5196 0014428 250.7311 109.1604  2.13102067 47024"}}, "geometry": {"type": "Point", "coordinates": [-175.58354131355867, 64.73365656885917]}}, {"type": "Feature", "properties": {"norad_id": 44864, "name": "BEIDOU-3 M19 (C41)", "group": "gnss", "lat": -50.728691090500675, "lon": -57.2028574379653, "alt_km": 21492.434409714762, "timestamp": "2025-12-26T22:28:06.027879+00:00", "meta": {"OBJECT_NAME": "BEIDOU-3 M19 (C41)", "OBJECT_ID": "2019-090A", "EPOCH": "2025-12-26T13:40:26.964192", "MEAN_MOTION": 1.86231444, "ECCENTRICITY": 0.001848, "INCLINATION": 56.4042, "RA_OF_ASC_NODE": 68.5033, "ARG_OF_PERICENTER": 285.3121, "MEAN_ANOMALY": 77.4787, "EPHEMERIS_TYPE": 0, "CLASSIFICATION_TYPE": "U", "NORAD_CAT_ID": 44864, "ELEMENT_SET_NO": 999, "REV_AT_EPOCH": 4102, "BSTAR": 0, "MEAN_MOTION_DOT": -3.2e-07, "MEAN_MOTION_DDOT": 0}, "tle": {"line1": "1 44864U 19090A   25360.56975653 -.00000032  00000+0  00000+0 0  9991", "line2": "2 44864  56.4042  68.5033 0018480 285.3121  77.4787  1.86231444 41027"}}, "geometry": {"type": "Point", "coordinates": [-57.2028574379653, -50.728691090500675]}}, {"type": "Feature", "properties": {"norad_id": 44865, "name": "BEIDOU-3 M20 (C42)", "group": "gnss", "lat": -18.070221821571227, "lon": 56.030964975473616, "alt_km": 21497.57629243404, "timestamp": "2025-12-26T22:28:06.027891+00:00", "meta": {"OBJECT_NAME": "BEIDOU-3 M20 (C42)", "OBJECT_ID": "2019-090B", "EPOCH": "2025-12-26T13:03:31.682016", "MEAN_MOTION": 1.86231463, "ECCENTRICITY": 0.0015612, "INCLINATION": 56.4057, "RA_OF_ASC_NODE": 68.5385, "ARG_OF_PERICENTER": 297.4355, "MEAN_ANOMALY": 137.7791, "EPHEMERIS_TYPE": 0, "CLASSIFICATION_TYPE": "U", "NORAD_CAT_ID": 44865, "ELEMENT_SET_NO": 999, "REV_AT_EPOCH": 4100, "BSTAR": 0, "MEAN_MOTION_DOT": -3.2e-07, "MEAN_MOTION_DDOT": 0}, "tle": {"line1": "1 44865U 19090B   25360.54411669 -.00000032  00000+0  00000+0 0  9992", "line2": "2 44865  56.4057  68.5385 0015612 297.4355 137.7791  1.86231463 41005"}}, "geometry": {"type": "Point", "coordinates": [56.030964975473616, -18.070221821571227]}}, {"type": "Feature", "properties": {"norad_id": 45344, "name": "BEIDOU-3 G2 (C60)", "group": "gnss", "lat": 2.401776555946977, "lon": 152.73681357515238, "alt_km": 35791.4828278514, "timestamp": "2025-12-26T22:28:06.027910+00:00", "meta": {"OBJECT_NAME": "BEIDOU-3 G2 (C60)", "OBJECT_ID": "2020-017A", "EPOCH": "2025-12-26T19:18:42.701760", "MEAN_MOTION": 1.00271889, "ECCENTRICITY": 0.0002166, "INCLINATION": 2.5215, "RA_OF_ASC_NODE": 44.1536, "ARG_OF_PERICENTER": 237.3433, "MEAN_ANOMALY": 183.7714, "EPHEMERIS_TYPE": 0, "CLASSIFICATION_TYPE": "U", "NORAD_CAT_ID": 45344, "ELEMENT_SET_NO": 999, "REV_AT_EPOCH": 2153, "BSTAR": 0, "MEAN_MOTION_DOT": -1.19e-06, "MEAN_MOTION_DDOT": 0}, "tle": {"line1": "1 45344U 20017A   25360.80466090 -.00000119  00000+0  00000+0 0  9999", "line2": "2 45344   2.5215  44.1536 0002166 237.3433 183.7714  1.00271889 21538"}}, "geometry": {"type": "Point", "coordinates": [152.73681357515238, 2.401776555946977]}}, {"type": "Feature", "properties": {"norad_id": 45358, "name": "COSMOS 2545 (760)", "group": "gnss", "lat": -46.60255016489771, "lon": -71.89040967599762, "alt_km": 19119.08122537206, "timestamp": "2025-12-26T22:28:06.027922+00:00", "meta": {"OBJECT_NAME": "COSMOS 2545 (760)", "OBJECT_ID": "2020-018A", "EPOCH": "2025-12-26T01:37:18.289920", "MEAN_MOTION": 2.13102654, "ECCENTRICITY": 0.00112779, "INCLINATION": 64.4616, "RA_OF_ASC_NODE": 318.5028, "ARG_OF_PERICENTER": 250.7597, "MEAN_ANOMALY": 109.1229, "EPHEMERIS_TYPE": 0, "CLASSIFICATION_TYPE": "U", "NORAD_CAT_ID": 45358, "ELEMENT_SET_NO": 999, "REV_AT_EPOCH": 4497, "BSTAR": 0, "MEAN_MOTION_DOT": -3.5e-07, "MEAN_MOTION_DDOT": 0}, "tle": {"line1": "1 45358U 20018A   25360.06757280 -.00000035  00000+0  00000+0 0  9994", "line2": "2 45358  64.4616 318.5028 0011277 250.7597 109.1229  2.13102654 44976"}}, "geometry": {"type": "Point", "coordinates": [-71.89040967599762, -46.60255016489771]}}]}